*******************************************************************************
Ephemeris / WWW_USER Sun Apr 28 18:31:41 2019 Pasadena, USA      / Horizons    
*******************************************************************************
Target body name: Venus (299)                     {source: DE431mx}
Center body name: Earth (399)                     {source: DE431mx}
Center-site name: GEOCENTRIC
*******************************************************************************
Start time      : A.D. 2010-Jan-01 00:00:00.0000 UT      
Stop  time      : A.D. 2030-Jan-01 00:00:00.0000 UT      
Step-size       : 2880 minutes
*******************************************************************************
Target pole/equ : IAU_VENUS                       {East-longitude positive}
Target radii    : 6051.8 x 6051.8 x 6051.8 km     {Equator, meridian, pole}    
Center geodetic : 0.00000000,0.00000000,0.0000000 {E-lon(deg),Lat(deg),Alt(km)}
Center cylindric: 0.00000000,0.00000000,0.0000000 {E-lon(deg),Dxy(km),Dz(km)}
Center pole/equ : High-precision EOP model        {East-longitude positive}
Center radii    : 6378.1 x 6378.1 x 6356.8 km     {Equator, meridian, pole}    
Target primary  : Sun
Vis. interferer : MOON (R_eq= 1737.400) km        {source: DE431mx}
Rel. light bend : Sun, EARTH                      {source: DE431mx}
Rel. lght bnd GM: 1.3271E+11, 3.9860E+05 km^3/s^2                              
Atmos refraction: YES (Earth refraction model)
RA format       : DEG
Time format     : CAL 
EOP file        : eop.190426.p190718                                           
EOP coverage    : DATA-BASED 1962-JAN-20 TO 2019-APR-26. PREDICTS-> 2019-JUL-17
Units conversion: 1 au= 149597870.700 km, c= 299792.458 km/s, 1 day= 86400.0 s 
Table cut-offs 1: Elevation (-90.0deg=NO ),Airmass (>38.000=NO), Daylight (NO )
Table cut-offs 2: Solar elongation (  0.0,180.0=NO ),Local Hour Angle( 0.0=NO )
Table cut-offs 3: RA/DEC angular rate (     0.0=NO )                           
******************************************************************************************************
 Date__(UT)__HR:MN      APmag  S-brt               r        rdot            delta      deldot    S-T-O
******************************************************************************************************
$$SOE
 2014-Nov-12 00:00      -3.94   0.74  0.724863539524   0.2240383 1.70760891079538  -1.5182744   6.1356
 2014-Nov-14 00:00      -3.94   0.75  0.725119759325   0.2194790 1.70577345815323  -1.6597249   6.8008
 2014-Nov-16 00:00      -3.93   0.76  0.725370321234   0.2142445 1.70377449245304  -1.8013900   7.4664
 2014-Nov-18 00:00      -3.92   0.77  0.725614455422   0.2083526 1.70161174062279  -1.9433097   8.1318
 2014-Nov-20 00:00      -3.92   0.77  0.725851413425   0.2018226 1.69928490191991  -2.0854796   8.7966
 2014-Nov-22 00:00      -3.91   0.78  0.726080470290   0.1946757 1.69679376529199  -2.2277194   9.4607
 2014-Nov-24 00:00      -3.91   0.79  0.726300926644   0.1869351 1.69413851376193  -2.3695056  10.1238
 2014-Nov-26 00:00      -3.90   0.79  0.726512110669   0.1786253 1.69132015124956  -2.5099621  10.7860
 2014-Nov-28 00:00      -3.90   0.80  0.726713379986   0.1697727 1.68834077886268  -2.6481283  11.4473
 2014-Nov-30 00:00      -3.90   0.81  0.726904123444   0.1604050 1.68520347249242  -2.7833317  12.1078
 2014-Dec-02 00:00      -3.89   0.82  0.727083762807   0.1505514 1.68191180303288  -2.9154050  12.7675
 2014-Dec-04 00:00      -3.89   0.82  0.727251754342   0.1402425 1.67846922730063  -3.0447032  13.4266
 2014-Dec-06 00:00      -3.88   0.83  0.727407590300   0.1295100 1.67487854309700  -3.1719814  14.0849
 2014-Dec-08 00:00      -3.88   0.84  0.727550800291   0.1183869 1.67114155677012  -3.2981537  14.7426
 2014-Dec-10 00:00      -3.88   0.84  0.727680952549   0.1069070 1.66725906103447  -3.4240230  15.3996
 2014-Dec-12 00:00      -3.87   0.85  0.727797655091   0.0951054 1.66323105981515  -3.5501460  16.0560
 2014-Dec-14 00:00      -3.87   0.86  0.727900556760   0.0830176 1.65905704130738  -3.6768768  16.7119
 2014-Dec-16 00:00      -3.87   0.86  0.727989348167   0.0706804 1.65473614319572  -3.8044876  17.3673
 2014-Dec-18 00:00      -3.87   0.87  0.728063762512   0.0581309 1.65026719632274  -3.9332402  18.0225
 2014-Dec-20 00:00      -3.86   0.87  0.728123576302   0.0454068 1.64564875762649  -4.0633212  18.6774
 2014-Dec-22 00:00      -3.86   0.88  0.728168609960   0.0325464 1.64087931969702  -4.1946061  19.3324
 2014-Dec-24 00:00      -3.86   0.89  0.728198728309   0.0195884 1.63595782758301  -4.3264131  19.9876
 2014-Dec-26 00:00      -3.86   0.89  0.728213840956   0.0065716 1.63088430726816  -4.4576155  20.6432
 2014-Dec-28 00:00      -3.86   0.90  0.728213902534  -0.0064650 1.62566009229105  -4.5871775  21.2996
 2014-Dec-30 00:00      -3.86   0.91  0.728198912820  -0.0194822 1.62028742421850  -4.7146019  21.9569
 2015-Jan-01 00:00      -3.85   0.91  0.728168916722  -0.0324410 1.61476877822068  -4.8399585  22.6153
 2015-Jan-03 00:00      -3.85   0.92  0.728124004135  -0.0453025 1.60910630982376  -4.9636975  23.2750
 2015-Jan-05 00:00      -3.85   0.92  0.728064309678  -0.0580283 1.60330152251326  -5.0864710  23.9360
 2015-Jan-07 00:00      -3.85   0.93  0.727990012318  -0.0705800 1.59735512247944  -5.2089842  24.5985
 2015-Jan-09 00:00      -3.85   0.94  0.727901334891  -0.0829200 1.59126703142531  -5.3318743  25.2626
 2015-Jan-11 00:00      -3.85   0.94  0.727798543512  -0.0950111 1.58503650338447  -5.4556592  25.9283
 2015-Jan-13 00:00      -3.85   0.95  0.727681946877  -0.1068167 1.57866224902484  -5.5807737  26.5958
 2015-Jan-15 00:00      -3.85   0.95  0.727551895464  -0.1183010 1.57214248621973  -5.7076485  27.2652
 2015-Jan-17 00:00      -3.85   0.96  0.727408780609  -0.1294292 1.56547491861357  -5.8367365  27.9367
 2015-Jan-19 00:00      -3.85   0.96  0.727253033477  -0.1401671 1.55865677658589  -5.9683568  28.6104
 2015-Jan-21 00:00      -3.85   0.97  0.727085123907  -0.1504820 1.55168517819393  -6.1023124  29.2866
 2015-Jan-23 00:00      -3.86   0.98  0.726905559138  -0.1603419 1.54455791899134  -6.2376287  29.9654
 2015-Jan-25 00:00      -3.86   0.98  0.726714882421  -0.1697163 1.53727421148992  -6.3729508  30.6472
 2015-Jan-27 00:00      -3.86   0.99  0.726513671512  -0.1785761 1.52983467518462  -6.5073026  31.3322
 2015-Jan-29 00:00      -3.86   0.99  0.726302537067  -0.1868934 1.52224066714312  -6.6403762  32.0206
 2015-Jan-31 00:00      -3.86   1.00  0.726082120943  -0.1946421 1.51449360453594  -6.7723265  32.7127
 2015-Feb-02 00:00      -3.86   1.00  0.725853094411  -0.2017975 1.50659458403442  -6.9035232  33.4085
 2015-Feb-04 00:00      -3.87   1.01  0.725616156273  -0.2083366 1.49854421390261  -7.0344302  34.1082
 2015-Feb-06 00:00      -3.87   1.01  0.725372030899  -0.2142380 1.49034253953935  -7.1655505  34.8118
 2015-Feb-08 00:00      -3.87   1.02  0.725121466171  -0.2194825 1.48198902336994  -7.2973843  35.5195
 2015-Feb-10 00:00      -3.87   1.02  0.724865231340  -0.2240524 1.47348256254877  -7.4304108  36.2314
 2015-Feb-12 00:00      -3.88   1.03  0.724604114801  -0.2279321 1.46482150114315  -7.5651172  36.9474
 2015-Feb-14 00:00      -3.88   1.04  0.724338921791  -0.2311081 1.45600358892444  -7.7020515  37.6678
 2015-Feb-16 00:00      -3.88   1.04  0.724070472013  -0.2335690 1.44702591454331  -7.8417877  38.3927
 2015-Feb-18 00:00      -3.89   1.05  0.723799597194  -0.2353053 1.43788501616970  -7.9846279  39.1220
 2015-Feb-20 00:00      -3.89   1.05  0.723527138583  -0.2363099 1.42857748748365  -8.1300993  39.8561
 2015-Feb-22 00:00      -3.89   1.06  0.723253944396  -0.2365780 1.41910099546768  -8.2768803  40.5953
 2015-Feb-24 00:00      -3.90   1.06  0.722980867217  -0.2361069 1.40945488716047  -8.4235413  41.3396
 2015-Feb-26 00:00      -3.90   1.07  0.722708761354  -0.2348962 1.39963985215497  -8.5692465  42.0894
 2015-Feb-28 00:00      -3.91   1.07  0.722438480171  -0.2329479 1.38965717354214  -8.7137609  42.8449
 2015-Mar-02 00:00      -3.91   1.08  0.722170873388  -0.2302664 1.37950820517457  -8.8571503  43.6061
 2015-Mar-04 00:00      -3.91   1.09  0.721906784381  -0.2268583 1.36919415089307  -8.9995914  44.3732
 2015-Mar-06 00:00      -3.92   1.09  0.721647047460  -0.2227326 1.35871597289786  -9.1413254  45.1463
 2015-Mar-08 00:00      -3.92   1.10  0.721392485165  -0.2179008 1.34807431501443  -9.2826635  45.9254
 2015-Mar-10 00:00      -3.93   1.10  0.721143905572  -0.2123764 1.33726942071096  -9.4239865  46.7106
 2015-Mar-12 00:00      -3.94   1.11  0.720902099613  -0.2061756 1.32630105507735  -9.5657428  47.5019
 2015-Mar-14 00:00      -3.94   1.11  0.720667838446  -0.1993164 1.31516841800805  -9.7084676  48.2993
 2015-Mar-16 00:00      -3.95   1.12  0.720441870854  -0.1918195 1.30387003329772  -9.8527906  49.1029
 2015-Mar-18 00:00      -3.95   1.13  0.720224920705  -0.1837074 1.29240370093001  -9.9992858  49.9127
 2015-Mar-20 00:00      -3.96   1.13  0.720017684474  -0.1750049 1.28076679576666 -10.1480208  50.7288
 2015-Mar-22 00:00      -3.97   1.14  0.719820828837  -0.1657389 1.26895713998015 -10.2981258  51.5515
 2015-Mar-24 00:00      -3.97   1.14  0.719634988355  -0.1559381 1.25697399869791 -10.4480963  52.3809
 2015-Mar-26 00:00      -3.98   1.15  0.719460763247  -0.1456332 1.24481833233730 -10.5966276  53.2172
 2015-Mar-28 00:00      -3.99   1.16  0.719298717267  -0.1348566 1.23249226765732 -10.7430106  54.0607
 2015-Mar-30 00:00      -4.00   1.16  0.719149375696  -0.1236425 1.21999847643010 -10.8869626  54.9116
 2015-Apr-01 00:00      -4.00   1.17  0.719013223459  -0.1120267 1.20733983849360 -11.0283748  55.7700
 2015-Apr-03 00:00      -4.01   1.18  0.718890703368  -0.1000461 1.19451931687420 -11.1672068  56.6359
 2015-Apr-05 00:00      -4.02   1.18  0.718782214511  -0.0877395 1.18153987808648 -11.3035009  57.5096
 2015-Apr-07 00:00      -4.03   1.19  0.718688110784  -0.0751465 1.16840436717352 -11.4374332  58.3910
